OSCAR 7 (AO-7)          
1 07530U 74089B   18174.87016715 -.00000040  00000-0  27671-4 0  9991
2 07530 101.6872 142.0902 0011930 324.6092  62.9298 12.53633099995437
UOSAT 2 (UO-11)         
1 14781U 84021B   18174.88250233  .00000093  00000-0  17626-4 0  9996
2 14781  97.6484 210.8134 0009887  65.8769 294.3478 14.83012642824432
LUSAT (LO-19)           
1 20442U 90005G   18174.77645000 -.00000001  00000-0  15925-4 0  9994
2 20442  98.6103 113.2277 0012655 127.2554 232.9787 14.32898557484779
ITAMSAT (IO-26)         
1 22826U 93061D   18174.88290865  .00000009  00000-0  21253-4 0  9992
2 22826  98.8568 151.1566 0008234 323.0822  36.9792 14.30364707290460
RADIO ROSTO (RS-15)     
1 23439U 94085A   18174.43919214 -.00000026  00000-0  47497-3 0  9994
2 23439  64.8184 338.7214 0157081 180.9281 205.8218 11.27567374967273
JAS-2 (FO-29)           
1 24278U 96046B   18174.81148804 -.00000017  00000-0  15525-4 0  9994
2 24278  98.5172  12.6552 0351422  93.7365 270.4024 13.53084048 79133
TECHSAT 1B (GO-32)      
1 25397U 98043D   18174.91916488 -.00000022  00000-0  93272-5 0  9990
2 25397  98.6501 115.2463 0001793  41.6551 318.4763 14.23647374 36463
ISS (ZARYA)             
1 25544U 98067A   18174.91471476  .00009577  00000-0  15257-3 0  9991
2 25544  51.6407 345.1812 0003395 217.3356 297.0158 15.53970859119562
PCSAT (NO-44)           
1 26931U 01043C   18174.64732683 -.00000032  00000-0  19647-4 0  9996
2 26931  67.0499 212.7406 0007948 273.6892  86.3300 14.30508680873402
SAUDISAT 1C (SO-50)     
1 27607U 02058C   18174.85446646 -.00000019  00000-0  18096-4 0  9990
2 27607  64.5560  69.6556 0065985 326.9298  32.7685 14.75459134833940
CUTE-1 (CO-55)          
1 27844U 03031E   18174.85332687  .00000051  00000-0  42631-4 0  9991
2 27844  98.6860 183.4115 0009732   0.1472 359.9707 14.22119120777107
CUBESAT XI-IV (CO-57)   
1 27848U 03031J   18174.74414104  .00000045  00000-0  40442-4 0  9999
2 27848  98.6946 183.7041 0009851  10.7506 349.3880 14.21722531776990
MOZHAYETS 4 (RS-22)     
1 27939U 03042A   18175.21411175  .00000092  00000-0  24953-4 0  9991
2 27939  97.9913 314.1669 0014179 123.4234 358.0251 14.66695153787845
CUBESAT XI-V (CO-58)    
1 28895U 05043F   18174.36105966  .00000120  00000-0  31801-4 0  9991
2 28895  97.9097 325.5666 0017925  53.3069 306.9778 14.63555775674788
CUTE-1.7+APD II (CO-65) 
1 32785U 08021C   18174.83901528  .00000242  00000-0  31832-4 0  9992
2 32785  97.5466 186.6998 0013680  23.1836 336.9996 14.88134612550094
DELFI-C3 (DO-64)        
1 32789U 08021G   18174.68938747  .00001550  00000-0  11012-3 0  9992
2 32789  97.5117 229.3346 0010699 275.8941  84.1067 15.06105776552669
SEEDS II (CO-66)        
1 32791U 08021J   18174.84970137  .00000415  00000-0  47783-4 0  9996
2 32791  97.5355 192.0840 0013399   3.7788 356.3530 14.90570761550500
YUBILEINY (RS-30)       
1 32953U 08025A   18175.12191653  .00000030  00000-0  14666-3 0  9996
2 32953  82.5026   8.3660 0018853 192.2601 167.8022 12.43083577457637
KKS-1 (KISEKI)          
1 33499U 09002H   18174.89327143  .00000119  00000-0  25636-4 0  9994
2 33499  98.3564 356.8773 0007894 271.9852  88.0451 14.75338239505748
SWISSCUBE               
1 35932U 09051B   18174.89558764  .00000133  00000-0  41168-4 0  9991
2 35932  98.5462 326.2173 0007665 180.3061 179.8132 14.56168894464372
BEESAT                  
1 35933U 09051C   18174.99104361  .00000118  00000-0  37677-4 0  9996
2 35933  98.5500 327.8672 0005593 190.5074 169.6007 14.56271891464530
ITUPSAT 1               
1 35935U 09051E   18174.98091355  .00000083  00000-0  30218-4 0  9990
2 35935  98.5613 328.1096 0007972 189.2185 170.8866 14.55448005464317
XIWANG-1 (HOPE-1)       
1 36122U 09072B   18174.92896977 -.00000019  00000-0  61722-4 0  9993
2 36122 100.0747 189.2489 0008286  96.5809 263.6248 13.16344949409432
JUGNU                   
1 37839U 11058B   18174.62667177  .00000309  00000-0  22998-4 0  9994
2 37839  19.9628 358.2034 0018956 318.0774  86.2526 14.12621859346170
SRMSAT                  
1 37841U 11058D   18174.95264167  .00000283  00000-0  10325-4 0  9997
2 37841  19.9735  45.5660 0011839 204.7508 275.8720 14.10608537345742
M-CUBED & EXP-1 PRIME   
1 37855U 11061F   18175.12415796  .00001988  00000-0  10847-3 0  9993
2 37855 101.7154 241.2054 0176474  61.7661 300.1241 15.04482160362691
STRAND-1                
1 39090U 13009E   18175.15209544  .00000024  00000-0  23912-4 0  9993
2 39090  98.5213  21.4465 0007985 278.4888  81.5392 14.35030018278827
SOMP                    
1 39134U 13015E   18174.78294029  .00001371  00000-0  74245-4 0  9990
2 39134  64.8640 105.5735 0012256 215.0122 145.0201 15.19196985285906
BEESAT-3                
1 39135U 13015F   18175.21130414  .00001375  00000-0  79550-4 0  9995
2 39135  64.8687 117.6340 0019683 237.0182 122.9052 15.16705296285710
BEESAT-2                
1 39136U 13015G   18175.18348907  .00001089  00000-0  66028-4 0  9998
2 39136  64.8694 120.5294 0022135 235.9047 123.9978 15.16171173285655
ZACUBE-1 (TSHEPISOSAT)  
1 39417U 13066B   18174.66594537  .00000194  00000-0  30771-4 0  9992
2 39417  97.5864 202.9594 0060331 132.9583 227.6712 14.80944022247756
GOMX 1                  
1 39430U 13066Q   18175.16116874  .00000199  00000-0  45591-4 0  9998
2 39430  97.6978 151.5323 0150368 308.9600  49.8281 14.59089042244167
CUBEBUG-2 (LO-74)       
1 39440U 13066AA  18174.85355388  .00000225  00000-0  38357-4 0  9991
2 39440  97.6007 189.6948 0080696 172.7812 187.4581 14.75681782245704
FUNCUBE-1 (AO-73)       
1 39444U 13066AE  18174.65848188  .00000296  00000-0  42793-4 0  9995
2 39444  97.5872 204.4857 0059543 128.4171 232.2410 14.81725833246619
UWE-3                   
1 39446U 13066AG  18175.06799085  .00000242  00000-0  38801-4 0  9990
2 39446  97.5920 196.2187 0070978 152.2196 208.2836 14.78216081246134
SPROUT                  
1 39770U 14029E   18174.98687547  .00000589  00000-0  72131-4 0  9997
2 39770  97.8771 275.9758 0008978 177.9952 182.1324 14.86867256221371
UNISAT-6                
1 40012U 14033C   18174.73186056  .00000176  00000-0  33773-4 0  9996
2 40012  97.8077  50.7621 0058420 176.8423 183.3166 14.73828334215669
DUCHIFAT-1              
1 40021U 14033M   18174.63833923  .00000381  00000-0  45073-4 0  9991
2 40021  97.9163  93.3693 0013493 151.0675 209.1293 14.90320967217919
FUNCUBE-3 (EO-79)       
1 40025U 14033R   18175.20479860  .00000279  00000-0  35881-4 0  9997
2 40025  97.9054  90.5893 0012957 155.7789 204.4039 14.88725670217838
NUDT-PHONESAT           
1 40900U 15049B   18174.88260607  .00002479  00000-0  11349-3 0  9993
2 40900  97.4402 183.0568 0013780  13.9369 346.2244 15.21361926152933
ZDPS 2A                 
1 40901U 15049C   18175.20097780  .00001055  00000-0  56485-4 0  9991
2 40901  97.4582 181.4376 0014284  20.5080 339.6724 15.17111265152726
ZDPS 2B                 
1 40902U 15049D   18175.17563628  .00000944  00000-0  51185-4 0  9995
2 40902  97.4482 179.4240 0014249  17.7982 342.3748 15.16905232152702
XW-2A                   
1 40903U 15049E   18175.19201396  .00002484  00000-0  63103-4 0  9993
2 40903  97.3834 210.1168 0014387  12.6986 347.4620 15.40538318154886
KAITUO 1A               
1 40904U 15049F   18175.07803076  .00000617  00000-0  36484-4 0  9992
2 40904  97.4588 178.5335 0015607  20.1724  65.4488 15.15034387152546
2015-049G               
1 40905U 15049G   18175.22140889  .00000516  00000-0  31948-4 0  9994
2 40905  97.4584 176.7378 0016139  12.7571 347.4066 15.13985784152480
XW-2C                   
1 40906U 15049H   18175.18644218  .00000719  00000-0  41713-4 0  9991
2 40906  97.4595 178.5494 0015347  12.3461 347.8144 15.15209345152559
XW-2D                   
1 40907U 15049J   18175.20422822  .00000840  00000-0  47943-4 0  9996
2 40907  97.4569 178.2629 0014657  10.4642 349.6892 15.15361959152562
LILACSAT 2              
1 40908U 15049K   18174.95489930  .00000450  00000-0  28665-4 0  9998
2 40908  97.4681 177.3683 0016354  12.3716 347.7914 15.13522680152390
XW-2F                   
1 40910U 15049M   18175.21328079  .00001256  00000-0  67632-4 0  9999
2 40910  97.4569 179.5995 0015232   5.8763 354.2646 15.16563282152516
XW-2B                   
1 40911U 15049N   18174.95785420  .00000764  00000-0  43976-4 0  9995
2 40911  97.4603 178.5614 0014608  11.9007 348.2567 15.15304988152428
KAITUO 1B               
1 40912U 15049P   18175.06166003  .00001378  00000-0  69369-4 0  9995
2 40912  97.4500 182.2916 0015366 353.9681  41.6991 15.18783990152715
TIANWANG 1C (TW-1C)     
1 40926U 15051B   18175.11121003  .00007494  00000-0  13927-3 0  9993
2 40926  97.1821 217.4217 0007923 244.3511 170.9240 15.49160665154383
TIANWANG 1A (TW-1A)     
1 40928U 15051D   18174.83253382  .00002435  00000-0  65608-4 0  9993
2 40928  97.1849 208.6898 0010282 303.2828 110.8509 15.38751003153807
LAPAN-A2 (IO-86)        
1 40931U 15052B   18174.27250004  .00000631  00000-0 -12290-5 0  9991
2 40931   5.9988 106.7320 0013455  91.5031 268.6731 14.76577849147906
E-ST@R-II               
1 41459U 16025D   18174.76369061  .00001821  00000-0  97914-4 0  9992
2 41459  98.1375 237.8026 0172525 126.1644 235.5669 15.04426228118417
AAUSAT 4                
1 41460U 16025E   18175.13474165  .00002654  00000-0  13966-3 0  9997
2 41460  98.1266 238.7019 0162739 120.7959 240.9472 15.05863437118538
NUSAT 1 (LO-87)         
1 41557U 16033B   18175.17945114  .00001551  00000-0  59332-4 0  9997
2 41557  97.4376 259.3825 0015754 134.3396 225.9138 15.28026029115221
BEESAT-4                
1 41619U 16040W   18175.16883761  .00001501  00000-0  68447-4 0  9994
2 41619  97.4146 238.2192 0011060 197.7449 162.3403 15.22146765 99152
ALSAT 1N                
1 41789U 16059G   18175.13367959  .00000085  00000-0  25184-4 0  9992
2 41789  98.1183 237.8182 0029622  66.7826 293.6503 14.64161274 93037
CAS-2T & KS-1Q          
1 41847U 16066G   18174.65247350  .00000065  00000-0  21057-4 0  9996
2 41847  98.7493 203.6904 0365423 225.1544 131.9417 14.37899868 85255
NAYIF-1 (EO-88)         
1 42017U 17008BX  18174.85717681  .00001648  00000-0  70034-4 0  9991
2 42017  97.4477 239.8750 0006495  12.5656 347.5742 15.24468597 75080
LILACSAT-1              
1 42725U 98067ME  18174.92352187  .00030712  00000-0  25713-3 0  9992
2 42725  51.6357 323.7387 0004336 257.5640 102.4872 15.69692137 61579
MAX VALIER SAT          
1 42778U 17036P   18175.15279841  .00001127  00000-0  53339-4 0  9992
2 42778  97.4028 234.7502 0013956  51.2136 309.0344 15.21327414 55569
FOX-1B (AO-91)          
1 43017U 17073E   18174.50851805  .00000301  00000-0  29786-4 0  9996
2 43017  97.7075 105.3765 0258279 250.9699 106.3374 14.78091086 32049
FOX-1D (AO-92)          
1 43137U 18004AC  18174.86663862  .00001157  00000-0  52628-4 0  9998
2 43137  97.5331 237.5862 0011203  79.6855 280.5644 15.22728094 24733
